NORAD_CAT_ID,OBJECT_NAME,OBJECT_TYPE,EPOCH,MEAN_MOTION,ECCENTRICITY,INCLINATION,RA_OF_ASC_NODE,ARG_OF_PERICENTER,MEAN_ANOMALY,BSTAR,MEAN_MOTION_DOT,MEAN_MOTION_DDOT,TLE_LINE0,TLE_LINE1,TLE_LINE2,SEMIMAJOR_AXIS,PERIOD,APOGEE,PERIGEE,DECAYED
52106.0,STARLINK-3670,PAYLOAD,2023-01-15 20:23:29,15.08841995,0.0002785,53.2144,206.4748,37.5681,322.5505,0.00025213,3.727e-05,0.0,0 STARLINK-3670,1 52106U 22029U   23015.84964557  .00003727  00000-0  25213-3 0  9993,2 52106  53.2144 206.4748 0002785  37.5681 322.5505 15.08841995 47214,6917.874,95.437,541.6659999999999,537.813,0.0
52106.0,STARLINK-3670,PAYLOAD,2023-01-16 12:17:21,15.0883657,0.0002815,53.2146,203.5011,39.5507,320.569,9.7931e-05,1.27e-05,0.0,0 STARLINK-3670,1 52106U 22029U   23016.51204883  .00001270  00000-0  97931-4 0  9995,2 52106  53.2146 203.5011 0002815  39.5507 320.5690 15.08836570 47317,6917.891,95.438,541.703,537.808,0.0
52106.0,STARLINK-3670,PAYLOAD,2023-01-16 21:49:39,15.08842474,0.000278,53.2158,201.7167,40.0049,320.1148,0.00010505,1.384e-05,0.0,0 STARLINK-3670,1 52106U 22029U   23016.90948436  .00001384  00000-0  10505-3 0  9994,2 52106  53.2158 201.7167 0002780  40.0049 320.1148 15.08842474 47371,6917.8730000000005,95.437,541.661,537.815,0.0
52106.0,STARLINK-3670,PAYLOAD,2023-01-17 12:08:08,15.08833948,0.0002723999999999,53.2159,199.0405,41.2476,318.8722,5.5866e-05,6.01e-06,0.0,0 STARLINK-3670,1 52106U 22029U   23017.50565074  .00000601  00000-0  55866-4 0  9995,2 52106  53.2159 199.0405 0002724  41.2476 318.8722 15.08833948 47469,6917.899,95.438,541.648,537.879,0.0
52106.0,STARLINK-3670,PAYLOAD,2023-01-17 21:40:26,15.08841912,0.0002694,53.2158,197.2561,42.1272,317.9927,2.7315e-05,1.46e-06,0.0,0 STARLINK-3670,1 52106U 22029U   23017.90308647  .00000146  00000-0  27315-4 0  9992,2 52106  53.2158 197.2561 0002694  42.1272 317.9927 15.08841912 47525,6917.875,95.437,541.6030000000001,537.876,0.0
52106.0,STARLINK-3670,PAYLOAD,2023-01-18 15:09:41,15.08847094,0.0002796,53.2159,193.9851,44.504,315.6177,-2.9631e-05,-7.6e-06,0.0,0 STARLINK-3670,1 52106U 22029U   23018.63172504 -.00000760  00000-0 -29631-4 0  9991,2 52106  53.2159 193.9851 0002796  44.5040 315.6177 15.08847094 47634,6917.859,95.437,541.658,537.789,0.0
52106.0,STARLINK-3670,PAYLOAD,2023-01-19 11:49:42,15.08833009,0.000277,53.2151,190.1206,45.185,314.9367,2.886e-05,1.71e-06,0.0,0 STARLINK-3670,1 52106U 22029U   23019.49285373  .00000171  00000-0  28860-4 0  9992,2 52106  53.2151 190.1206 0002770  45.1850 314.9367 15.08833009 47765,6917.901999999999,95.438,541.683,537.85,0.0
52106.0,STARLINK-3670,PAYLOAD,2023-01-20 11:40:29,15.0884113,0.0002644,53.2159,185.6594,48.1441,311.9776,-4.0631e-06,-3.53e-06,0.0,0 STARLINK-3670,1 52106U 22029U   23020.48645139 -.00000353  00000-0 -40631-5 0  9998,2 52106  53.2159 185.6594 0002644  48.1441 311.9776 15.08841130 47913,6917.877,95.437,541.571,537.913,0.0
52106.0,STARLINK-3670,PAYLOAD,2023-01-20 18:02:01,15.08846699,0.0002631999999999,53.216,184.4703,49.145,310.97700000000003,5.3419e-05,5.62e-06,0.0,0 STARLINK-3670,1 52106U 22029U   23020.75140553  .00000562  00000-0  53419-4 0  9995,2 52106  53.2160 184.4703 0002632  49.1450 310.9770 15.08846699 47954,6917.86,95.437,541.5459999999999,537.904,0.0
52106.0,STARLINK-3670,PAYLOAD,2023-01-21 03:34:21,15.08834197,0.0002869,53.2167,182.6863,52.6381,307.4872,4.6636000000000005e-05,4.54e-06,0.0,0 STARLINK-3670,1 52106U 22029U   23021.14885463  .00000454  00000-0  46636-4 0  9998,2 52106  53.2167 182.6863 0002869  52.6381 307.4872 15.08834197 48014,6917.898,95.438,541.748,537.778,0.0
52106.0,STARLINK-3670,PAYLOAD,2023-01-22 11:22:03,15.08840716,0.0002658999999999,53.216,176.7379,59.6249,300.5005,7.1241e-05,8.46e-06,0.0,0 STARLINK-3670,1 52106U 22029U   23022.47365246  .00000846  00000-0  71241-4 0  9992,2 52106  53.2160 176.7379 0002659  59.6249 300.5005 15.08840716 48218,6917.878000000001,95.438,541.5830000000001,537.904,0.0
52106.0,STARLINK-3670,PAYLOAD,2023-01-23 15:59:00,15.08835384,0.0002483,53.2171,171.3853,63.1544,296.9702,6.2038e-05,6.99e-06,0.0,0 STARLINK-3670,1 52106U 22029U   23023.66597668  .00000699  00000-0  62038-4 0  9999,2 52106  53.2171 171.3853 0002483  63.1544 296.9702 15.08835384 48397,6917.894,95.438,541.477,538.0419999999999,0.0
52106.0,STARLINK-3670,PAYLOAD,2023-01-24 03:06:41,15.08842721,0.0002387999999999,53.2165,169.3041,63.0909,297.0327,0.00011461,1.536e-05,0.0,0 STARLINK-3670,1 52106U 22029U   23024.12965026  .00001536  00000-0  11461-3 0  9992,2 52106  53.2165 169.3041 0002388  63.0909 297.0327 15.08842721 48460,6917.871999999999,95.437,541.389,538.085,0.0
52106.0,STARLINK-3670,PAYLOAD,2023-01-25 12:29:48,15.08835122,0.0002311999999999,53.2156,163.0606,71.7038,288.4206,5.9205e-05,6.54e-06,0.0,0 STARLINK-3670,1 52106U 22029U   23025.52069658  .00000654  00000-0  59205-4 0  9992,2 52106  53.2156 163.0606 0002312  71.7038 288.4206 15.08835122 48674,6917.895,95.438,541.36,538.161,0.0
52106.0,STARLINK-3670,PAYLOAD,2023-01-25 14:05:11,15.0883537,0.0002461999999999,53.2147,162.7615,76.8019,283.3248,3.8657e-05,3.27e-06,0.0,0 STARLINK-3670,1 52106U 22029U   23025.58693730  .00000327  00000-0  38657-4 0  9997,2 52106  53.2147 162.7615 0002462  76.8019 283.3248 15.08835370 48687,6917.895,95.438,541.4630000000001,538.056,0.0
52106.0,STARLINK-3670,PAYLOAD,2023-01-25 15:40:34,15.0883849,0.0002218999999999,53.2152,162.4657,69.3988,290.7242,3.6804e-05,2.97e-06,0.0,0 STARLINK-3670,1 52106U 22029U   23025.65317524  .00000297  00000-0  36804-4 0  9997,2 52106  53.2152 162.4657 0002219  69.3988 290.7242 15.08838490 48691,6917.885,95.438,541.285,538.215,0.0
52106.0,STARLINK-3670,PAYLOAD,2023-01-26 13:55:58,15.08840955,0.0002150999999999,53.2153,158.3028,70.0761,290.0462,8.1288e-05,1.006e-05,0.0,0 STARLINK-3670,1 52106U 22029U   23026.58053348  .00001006  00000-0  81288-4 0  9996,2 52106  53.2153 158.3028 0002151  70.0761 290.0462 15.08840955 48833,6917.877,95.437,541.231,538.254,0.0
52106.0,STARLINK-3670,PAYLOAD,2023-01-27 12:11:22,15.08828352,0.0002145999999999,53.2161,154.1403,69.9787,290.1436,7.9479e-05,9.77e-06,0.0,0 STARLINK-3670,1 52106U 22029U   23027.50790290  .00000977  00000-0  79479-4 0  9998,2 52106  53.2161 154.1403 0002146  69.9787 290.1436 15.08828352 48976,6917.916,95.438,541.266,538.2959999999999,0.0
52106.0,STARLINK-3670,PAYLOAD,2023-01-27 13:46:46,15.08828096,0.0002139,53.2155,153.8433,68.2811,291.8409,5.8118e-05,6.37e-06,0.0,0 STARLINK-3670,1 52106U 22029U   23027.57414422  .00000637  00000-0  58118-4 0  9995,2 52106  53.2155 153.8433 0002139  68.2811 291.8409 15.08828096 48984,6917.917,95.438,541.262,538.302,0.0
52106.0,STARLINK-3670,PAYLOAD,2023-01-27 15:22:09,15.088278699999998,0.0002041999999999,53.2165,153.5456,74.0354,286.0863,0.00011185,1.492e-05,0.0,0 STARLINK-3670,1 52106U 22029U   23027.64038273  .00001492  00000-0  11185-3 0  9991,2 52106  53.2165 153.5456 0002042  74.0354 286.0863 15.08827870 48997,6917.917,95.438,541.195,538.37,0.0
52106.0,STARLINK-3670,PAYLOAD,2023-01-28 13:37:32,15.0883861,0.0001912,53.2149,149.3824,78.8102,281.3105,3.4775e-05,2.65e-06,0.0,0 STARLINK-3670,1 52106U 22029U   23028.56773981  .00000265  00000-0  34775-4 0  9993,2 52106  53.2149 149.3824 0001912  78.8102 281.3105 15.08838610 49137,6917.885,95.438,541.072,538.427,0.0
52106.0,STARLINK-3670,PAYLOAD,2023-01-29 10:17:34,15.08827748,0.0001789,53.2149,145.5165,81.6911,278.4284,2.6067e-05,1.27e-06,0.0,0 STARLINK-3670,1 52106U 22029U   23029.42886797  .00000127  00000-0  26067-4 0  9991,2 52106  53.2149 145.5165 0001789  81.6911 278.4284 15.08827748 49264,6917.918,95.438,541.02,538.545,0.0
52106.0,STARLINK-3670,PAYLOAD,2023-01-29 16:39:06,15.08839386,0.0001857,53.2157,144.3249,81.1803,278.9399,6.0201e-05,6.7e-06,0.0,0 STARLINK-3670,1 52106U 22029U   23029.69382079  .00000670  00000-0  60201-4 0  9995,2 52106  53.2157 144.3249 0001857  81.1803 278.9399 15.08839386 49302,6917.882,95.438,541.032,538.463,0.0
52106.0,STARLINK-3670,PAYLOAD,2023-01-30 11:43:43,15.08837751,0.0001715,53.215,140.7572,96.1478,263.9709,7.2515e-05,8.66e-06,0.0,0 STARLINK-3670,1 52106U 22029U   23030.48870170  .00000866  00000-0  72515-4 0  9996,2 52106  53.2150 140.7572 0001715  96.1478 263.9709 15.08837751 49427,6917.887,95.438,540.939,538.566,0.0
52106.0,STARLINK-3670,PAYLOAD,2023-01-31 00:26:48,15.08840834,0.0001638,53.2153,138.3787,90.4603,269.6577,5.9391e-05,6.57e-06,0.0,0 STARLINK-3670,1 52106U 22029U   23031.01861976  .00000657  00000-0  59391-4 0  9995,2 52106  53.2153 138.3787 0001638  90.4603 269.6577 15.08840834 49503,6917.878,95.438,540.876,538.61,0.0
52106.0,STARLINK-3670,PAYLOAD,2023-01-31 11:34:30,15.08837434,0.0001603,53.215,136.2973,94.4498,265.6677,9.6047e-05,1.241e-05,0.0,0 STARLINK-3670,1 52106U 22029U   23031.48230105  .00001241  00000-0  96047-4 0  9999,2 52106  53.2150 136.2973 0001603  94.4498 265.6677 15.08837434 49578,6917.888,95.438,540.862,538.644,0.0
52106.0,STARLINK-3670,PAYLOAD,2023-02-01 09:49:54,15.08843724,0.0001595,53.215,132.1339,95.7853,264.3321,3.6483e-05,2.93e-06,0.0,0 STARLINK-3670,1 52106U 22029U   23032.40965791  .00000293  00000-0  36483-4 0  9992,2 52106  53.2150 132.1339 0001595  95.7853 264.3321 15.08843724 49715,6917.869,95.437,540.837,538.631,0.0
52106.0,STARLINK-3670,PAYLOAD,2023-02-01 13:00:40,15.08843982,0.0001527,53.2149,131.5397,97.344,262.7725,6.6305e-05,7.68e-06,0.0,0 STARLINK-3670,1 52106U 22029U   23032.54213602  .00000768  00000-0  66305-4 0  9997,2 52106  53.2149 131.5397 0001527  97.3440 262.7725 15.08843982 49733,6917.868,95.437,540.79,538.677,0.0
52106.0,STARLINK-3670,PAYLOAD,2023-02-02 12:51:28,15.08837299,0.0001481,53.215,127.079,82.7585,277.3576,-1.1748e-05,-4.75e-06,0.0,0 STARLINK-3670,1 52106U 22029U   23033.53574517 -.00000475  00000-0 -11748-4 0  9990,2 52106  53.2150 127.0790 0001481  82.7585 277.3576 15.08837299 49885,6917.889,95.438,540.778,538.729,0.0
